#cP2016  9 21  0  0  0.00000000      96 ORBIT IGb08 HLM  IGS
## 1915 259200.00000000   900.00000000 57652 0.0000000000000
+   32   G01G02G03G04G05G06G07G08G09G10G11G12G13G14G15G16G17
+        G18G19G20G21G22G23G24G25G26G27G28G29G30G31G32  0  0
+          0  0  0  0  0  0  0  0  0  0  0  0  0  0  0  0  0
+          0  0  0  0  0  0  0  0  0  0  0  0  0  0  0  0  0
+          0  0  0  0  0  0  0  0  0  0  0  0  0  0  0  0  0
++         2  2  2  0  2  2  2  2  2  2  2  2  3  2  2  2  2
++         2  3  2  2  2  2  2  2  2  2  2  3  2  2  2  0  0
++         0  0  0  0  0  0  0  0  0  0  0  0  0  0  0  0  0
++         0  0  0  0  0  0  0  0  0  0  0  0  0  0  0  0  0
++         0  0  0  0  0  0  0  0  0  0  0  0  0  0  0  0  0
%c G  cc GPS ccc cccc cccc cccc cccc ccccc ccccc ccccc ccccc
%c cc cc ccc ccc cccc cccc cccc cccc ccccc ccccc ccccc ccccc
%f  1.2500000  1.025000000  0.00000000000  0.000000000000000
%f  0.0000000  0.000000000  0.00000000000  0.000000000000000
%i    0    0    0    0      0      0      0      0         0
%i    0    0    0    0      0      0      0      0         0
/* RAPID ORBIT COMBINATION FROM WEIGHTED AVERAGE OF:        
/* cod emr esa gfz jpl ngs sio usn whu                      
/* REFERENCED TO IGS TIME (IGST) AND TO WEIGHTED MEAN POLE: 
/* PCV:IGS08_1914 OL/AL:FES2004  NONE     Y  ORB:CMB CLK:CMB
*  2016  9 21 21  0  0.00000000
PG01  -4068.671000  17070.615932 -19963.999964     34.761035  4  7  4  94       
PG02  21471.014084 -14748.590393   4460.937117    549.862558  5  7  5 123       
PG03   7369.283002  19383.808179 -16601.229936    -88.428180  6  8  6 110       
PG04  14762.701545 -14507.336888  16753.846779 999999.999999
PG05  12673.773848  -9778.146833  21142.581009    -89.539539  3  5  4  72       
PG06  24752.963823  -5590.423170  -7840.107923    249.470145  7  5  3  99       
PG07  13003.688598  10215.554583  21027.777459    425.454401  9  8  5 104       
PG08  -5474.969278  25501.147468   4942.788020    -32.684920  5  6  3  90       
PG09   8363.587661  20872.579789  14113.520192    210.706201  4  6  6 100       
PG10 -23493.060232  -9024.936852  -8601.211820   -100.241432  4  5  7 107       
PG11  -5973.318230  22290.142258 -13725.609630   -664.843429  5  7  7 105       
PG12  -4562.628574 -18884.180058 -18341.580171    388.795717  8  8  7 130       
PG13  12357.147625 -20354.804641  11722.269737    -45.074699  4  6  5 130       
PG14 -15324.291013   7956.040296 -19873.755878    -36.254045  7  7  3  93       
PG15   3546.724657 -25810.145788   3923.206029   -328.164703  9  7  6 117       
PG16 -12808.764951   7974.483440  21798.653964      7.508798  6  7  6  84       
PG17  14238.993546   4047.988455 -21727.122121   -202.162742  7  8  5 113       
PG18 -20724.527848 -16558.862240   3481.265567    559.928441  9 10  4 118       
PG19  15584.792253  -5359.556779 -21154.860456   -522.776597  5  6  4 133       
PG20  -5901.304440 -18748.213703  17696.855306    436.846910  8  6  6 130       
PG21 -15070.793028  -9347.432920  20586.969902   -532.187891  9 10  4 120       
PG22    -49.084883  17631.612877 -19599.688138    239.023419  6  8  4 128       
PG23   1684.734579  25770.044882   5309.290218   -190.744383  9  9  5  89       
PG24   7037.638706 -18051.439213 -18135.884565    -23.517007  4  7  6 101       
PG25 -16263.718044 -19057.782744  -9229.102814   -249.932591  7  7  7 135       
PG26 -20203.193243    744.812610  17252.183590   -473.796493  6  6  7  90       
PG27 -12088.707279  17716.364432  15510.087804    142.174802  4  4  2  91       
PG28  22149.146462  13027.276563  -6158.347059    553.724793  5  7  5 116       
PG29  -5179.437163 -22876.781010  12486.619150    650.195127  9 10  6  79       
PG30  21015.169775   3972.987677  15825.061448    151.262528     6  4  50       
PG31 -25305.329057   7032.905657  -5019.170108    246.692598  8  8  7 138       
PG32 -14945.080694  -3570.318739 -21650.500983   -124.238331  8  7  4 109       
*  2016  9 21 21 15  0.00000000
PG01  -6087.575899  17939.158891 -18616.133195     34.762096  4  7  5 102       
PG02  21896.826522 -14612.036832   1645.894664    549.857794  6  6  6 112       
PG03   5614.659662  18418.756988 -18298.691414    -88.430113  5  8  6 113       
PG04  14577.473189 -12530.162213  18466.869152 999999.999999
PG05  14661.021363  -8437.154932  20444.256480    -89.536910  3  6  4  77       
PG06  23920.969662  -4918.635420 -10439.694059    249.474741  7  5  3  92       
PG07  10851.772418  11282.302028  21660.812120    425.452194  9  7  5 109       
PG08  -5678.522673  24773.309224   7685.224449    -32.686377  5  6  2  94       
PG09   8074.538211  22349.495772  11838.801626    210.712678  4  6  6 107       
PG10 -24060.823235  -9676.283544  -5915.427033   -100.245335  4  4  7 122       
PG11  -7136.183040  23108.563454 -11554.036172   -664.844449  5  6  7 107       
PG12  -2789.180179 -17674.596380 -19834.327809    388.795984  8  8  7 130       
PG13  12285.850685 -18857.971715  14040.662046    -45.076728  4  6  5 133       
PG14 -15104.510153   5578.552585 -20830.030568    -36.255602  6  7  4  95       
PG15   3912.488981 -25184.125852   6648.309378   -328.165912  8  5  5 127       
PG16 -14749.812591   6458.365509  21098.885979      7.510522  7  7  7  86       
PG17  13958.597113   6561.210464 -21314.174862   -202.162164  8  8  5 111       
PG18 -20137.408114 -16580.692942   6179.542262    559.931674  9 10  5 126       
PG19  15262.129559  -2985.260748 -21826.986902   -522.775686  6  6  4 124       
PG20  -3926.738812 -17894.471171  19066.830920    436.848487  7  5  6 126       
PG21 -13127.828360 -10487.090923  21364.409836   -532.188009  9 10  4 121       
PG22  -2124.864634  16515.578306 -20438.416659    239.014372  6  7  4 127       
PG23   1336.792475  26183.827966   2506.277774   -190.745460  9  9  6  95       
PG24   8866.638614 -18828.760768 -16441.420520    -23.517648  4  6  5 124       
PG25 -15190.420436 -18549.577268 -11761.844266   -249.938866  7  7  7 135       
PG26 -21682.821934   -401.835602  15368.263890   -473.802792  6  7  8  70       
PG27 -12149.774027  15816.382066  17410.809531    142.179131  5  4  2  88       
PG28  22528.294890  13539.316827  -3315.926772    553.727333  7  7  5 117       
PG29  -4864.255359 -24133.319822  10003.784054    650.194290 10 10  6  96       
PG30  19324.588567   4881.790195  17613.476907    151.263925     6  4  72       
PG31 -24721.816960   6546.864228  -7746.865195    246.690761  9  8  6 137       
PG32 -14786.411913  -6021.527896 -21214.317372   -124.251460  7  7  5 116       
*  2016  9 21 21 30  0.00000000
PG01  -7912.235173  18828.406961 -16947.920831     34.763142  4  7  5  91       
PG02  22059.698190 -14319.955064  -1198.026916    549.853367  6  5  6 112       
PG03   3661.015115  17459.443527 -19681.380940    -88.432047  5  8  6 111       
PG04  14478.113417 -10374.590689  19865.522026 999999.999999
PG05  16624.449265  -7246.328216  19393.132109    -89.535111  4  6  3  77       
PG06  22880.216185  -4060.161501 -12859.587099    249.479293  7  5  3 109       
PG07   8712.457183  12488.812763  21927.979044    425.449180  8  7  5 104       
PG08  -5923.381637  23754.242457  10295.278716    -32.687785  5  7  2  75       
PG09   7858.211481  23570.187945   9360.079929    210.719181  4  5  6 112       
PG10 -24392.866658 -10144.117205  -3128.278089   -100.249229  3  4  7 132       
PG11  -8112.167058  23779.498569  -9188.996198   -664.845559  6  6  6 111       
PG12   -822.982376 -16487.508115 -20991.573849    388.796167  7  8  7 130       
PG13  12268.167734 -17110.293209  16116.514732    -45.078786  5  6  5 129       
PG14 -15001.373358   3105.169157 -21418.340568    -36.257559  6  7  4 113       
PG15   4326.994998 -24272.756476   9256.081815   -328.167493  8  3  5 128       
PG16 -16687.720729   5113.445930  20035.282952      7.511982  7  7  7  82       
PG17  13817.238892   9014.111754 -20523.922130   -202.161997  8  9  6  98       
PG18 -19294.823911 -16489.921147   8774.404790    559.934698  9  9  5 124       
PG19  15065.967691   -539.669003 -22133.523226   -522.775558  7  7  3 122       
PG20  -1790.568313 -17075.440599  20104.296559    436.850472  7  3  6 130       
PG21 -11188.722842 -11758.395862  21798.750885   -532.188171  9  9  4 121       
PG22  -4315.078699  15460.021541 -20917.530749    239.005350  6  7  4 129       
PG23   1005.308482  26292.168491   -340.946472   -190.746902  8  8  6  97       
PG24  10479.397915 -19587.504666 -14462.835476    -23.519585  4  6  5 131       
PG25 -13853.143232 -17965.148261 -14095.439563   -249.945079  6  7  6 128       
PG26 -23021.170770  -1358.097242  13220.452930   -473.809079  7  8  8  23       
PG27 -12314.134908  13724.106927  19009.021377    142.183461  5  5  3  77       
PG28  22666.574462  13840.519248   -415.928144    553.729573  7  6  4 119       
PG29  -4633.366342 -25114.341151   7349.033196    650.192894 10 10  6  98       
PG30  17516.097605   5957.818575  19100.109471    151.265350     6  4  66       
PG31 -23901.687162   5885.960171 -10343.604451    246.688712  9  8  6 142       
PG32 -14754.252277  -8407.340212 -20412.715494   -124.264549  7  7  6 124       
EOF
